ONEWEB-0398             
1 50478U 21132K   26032.02139339  .00000472  00000+0  12967-2 0  9995
2 50478  87.8822  48.1482 0002051 101.7993 258.3365 13.11417864197764
ONEWEB-0399             
1 50479U 21132L   26032.31301504 -.00000009  00000+0 -60960-4 0  9999
2 50479  87.8819  48.1003 0002212  79.7350 280.4027 13.11418991197796
ONEWEB-0400             
1 50480U 21132M   26031.96221384 -.00000108  00000+0 -30634-3 0  9992
2 50480  87.9208   2.4849 0001852  89.0533 271.0812 13.18686020203656
ONEWEB-0401             
1 50481U 21132N   26032.15848458  .00000067  00000+0  13756-3 0  9990
2 50481  87.9209   2.4416 0001725  77.9558 282.1767 13.18684414203680
ONEWEB-0402             
1 50482U 21132P   26031.89457977 -.00000097  00000+0 -27836-3 0  9992
2 50482  87.9205   2.4867 0001556  65.9074 294.2221 13.18685947203679
ONEWEB-0403             
1 50483U 21132Q   26031.91932526 -.00000027  00000+0 -10108-3 0  9991
2 50483  87.9211   2.5040 0001925  82.9294 277.2057 13.18687490203633
ONEWEB-0404             
1 50484U 21132R   26032.29435321 -.00000472  00000+0 -13680-2 0  9996
2 50484  87.8814  48.1133 0002188  88.7095 271.4284 13.11415392197886
ONEWEB-0405             
1 50485U 21132S   26032.16179659  .00000115  00000+0  25955-3 0  9993
2 50485  87.9210   2.4395 0001802  74.7417 285.3914 13.18687583204069
ONEWEB-0406             
1 50486U 21132T   26032.15189174 -.00000040  00000+0 -13476-3 0  9990
2 50486  87.9212   2.4674 0002300  80.0603 280.0789 13.18683032203698
ONEWEB-0407             
1 50487U 21132U   26032.14530122  .00000116  00000+0  26201-3 0  9995
2 50487  87.9212   2.4516 0001653  83.3166 276.8154 13.18687434203637
ONEWEB-0409             
1 50488U 21132V   26031.98747505 -.00000506  00000+0 -14635-2 0  9994
2 50488  87.8832  48.1512 0002208  94.7245 265.4135 13.11415735197731
ONEWEB-0412             
1 50489U 21132W   26032.20962932  .00000120  00000+0  27168-3 0  9990
2 50489  87.9212   2.4528 0001706  73.5502 286.5818 13.18686493203736
ONEWEB-0413             
1 50490U 21132X   26032.13868786 -.00000016  00000+0 -73249-4 0  9994
2 50490  87.9203   2.4746 0001535  76.5389 283.5914 13.18689185203663
ONEWEB-0414             
1 50491U 21132Y   26031.89623206 -.00000030  00000+0 -10870-3 0  9999
2 50491  87.9210   2.4912 0001864  77.5492 282.5849 13.18686543203669
ONEWEB-0417             
1 50492U 21132Z   26031.90446789 -.00000056  00000+0 -17569-3 0  9991
2 50492  87.9200   2.5203 0002058  84.4241 275.7126 13.18687316203647
ONEWEB-0418             
1 50493U 21132AA  26032.14186868 -.00000040  00000+0 -13454-3 0  9990
2 50493  87.9211   2.4600 0002291  84.3091 275.8302 13.18687280203738
ONEWEB-0419             
1 50494U 21132AB  26031.93252106 -.00000016  00000+0 -74364-4 0  9997
2 50494  87.9210   2.5013 0002061  91.5335 268.6033 13.18686880203627
