[{"OBJECT_NAME":"ONEWEB-0398","OBJECT_ID":"2021-132K","EPOCH":"2026-02-01T00:30:48.388896","MEAN_MOTION":13.11417864,"ECCENTRICITY":0.00020514,"INCLINATION":87.8822,"RA_OF_ASC_NODE":48.1482,"ARG_OF_PERICENTER":101.7993,"MEAN_ANOMALY":258.3365,"EPHEMERIS_TYPE":0,"CLASSIFICATION_TYPE":"U","NORAD_CAT_ID":50478,"ELEMENT_SET_NO":999,"REV_AT_EPOCH":19776,"BSTAR":0.0012966653,"MEAN_MOTION_DOT":4.72e-6,"MEAN_MOTION_DDOT":0},{"OBJECT_NAME":"ONEWEB-0399","OBJECT_ID":"2021-132L","EPOCH":"2026-02-01T07:30:44.499456","MEAN_MOTION":13.11418991,"ECCENTRICITY":0.00022125,"INCLINATION":87.8819,"RA_OF_ASC_NODE":48.1003,"ARG_OF_PERICENTER":79.735,"MEAN_ANOMALY":280.4027,"EPHEMERIS_TYPE":0,"CLASSIFICATION_TYPE":"U","NORAD_CAT_ID":50479,"ELEMENT_SET_NO":999,"REV_AT_EPOCH":19779,"BSTAR":-6.0960193e-5,"MEAN_MOTION_DOT":-9.0e-8,"MEAN_MOTION_DDOT":0},{"OBJECT_NAME":"ONEWEB-0400","OBJECT_ID":"2021-132M","EPOCH":"2026-01-31T23:05:35.275776","MEAN_MOTION":13.1868602,"ECCENTRICITY":0.00018529,"INCLINATION":87.9208,"RA_OF_ASC_NODE":2.4849,"ARG_OF_PERICENTER":89.0533,"MEAN_ANOMALY":271.0812,"EPHEMERIS_TYPE":0,"CLASSIFICATION_TYPE":"U","NORAD_CAT_ID":50480,"ELEMENT_SET_NO":999,"REV_AT_EPOCH":20365,"BSTAR":-0.00030633776,"MEAN_MOTION_DOT":-1.08e-6,"MEAN_MOTION_DDOT":0},{"OBJECT_NAME":"ONEWEB-0401","OBJECT_ID":"2021-132N","EPOCH":"2026-02-01T03:48:13.067712","MEAN_MOTION":13.18684414,"ECCENTRICITY":0.00017256,"INCLINATION":87.9209,"RA_OF_ASC_NODE":2.4416,"ARG_OF_PERICENTER":77.9558,"MEAN_ANOMALY":282.1767,"EPHEMERIS_TYPE":0,"CLASSIFICATION_TYPE":"U","NORAD_CAT_ID":50481,"ELEMENT_SET_NO":999,"REV_AT_EPOCH":20368,"BSTAR":0.00013755683,"MEAN_MOTION_DOT":6.7e-7,"MEAN_MOTION_DDOT":0},{"OBJECT_NAME":"ONEWEB-0402","OBJECT_ID":"2021-132P","EPOCH":"2026-01-31T21:28:11.692128","MEAN_MOTION":13.18685947,"ECCENTRICITY":0.00015568,"INCLINATION":87.9205,"RA_OF_ASC_NODE":2.4867,"ARG_OF_PERICENTER":65.9074,"MEAN_ANOMALY":294.2221,"EPHEMERIS_TYPE":0,"CLASSIFICATION_TYPE":"U","NORAD_CAT_ID":50482,"ELEMENT_SET_NO":999,"REV_AT_EPOCH":20367,"BSTAR":-0.00027835605,"MEAN_MOTION_DOT":-9.7e-7,"MEAN_MOTION_DDOT":0},{"OBJECT_NAME":"ONEWEB-0403","OBJECT_ID":"2021-132Q","EPOCH":"2026-01-31T22:03:49.702464","MEAN_MOTION":13.1868749,"ECCENTRICITY":0.00019252,"INCLINATION":87.9211,"RA_OF_ASC_NODE":2.504,"ARG_OF_PERICENTER":82.9294,"MEAN_ANOMALY":277.2057,"EPHEMERIS_TYPE":0,"CLASSIFICATION_TYPE":"U","NORAD_CAT_ID":50483,"ELEMENT_SET_NO":999,"REV_AT_EPOCH":20363,"BSTAR":-0.00010107668,"MEAN_MOTION_DOT":-2.7e-7,"MEAN_MOTION_DDOT":0},{"OBJECT_NAME":"ONEWEB-0404","OBJECT_ID":"2021-132R","EPOCH":"2026-02-01T07:03:52.117344","MEAN_MOTION":13.11415392,"ECCENTRICITY":0.00021883,"INCLINATION":87.8814,"RA_OF_ASC_NODE":48.1133,"ARG_OF_PERICENTER":88.7095,"MEAN_ANOMALY":271.4284,"EPHEMERIS_TYPE":0,"CLASSIFICATION_TYPE":"U","NORAD_CAT_ID":50484,"ELEMENT_SET_NO":999,"REV_AT_EPOCH":19788,"BSTAR":-0.0013679548,"MEAN_MOTION_DOT":-4.72e-6,"MEAN_MOTION_DDOT":0},{"OBJECT_NAME":"ONEWEB-0405","OBJECT_ID":"2021-132S","EPOCH":"2026-02-01T03:52:59.225376","MEAN_MOTION":13.18687583,"ECCENTRICITY":0.00018028,"INCLINATION":87.921,"RA_OF_ASC_NODE":2.4395,"ARG_OF_PERICENTER":74.7417,"MEAN_ANOMALY":285.3914,"EPHEMERIS_TYPE":0,"CLASSIFICATION_TYPE":"U","NORAD_CAT_ID":50485,"ELEMENT_SET_NO":999,"REV_AT_EPOCH":20406,"BSTAR":0.00025954905,"MEAN_MOTION_DOT":1.15e-6,"MEAN_MOTION_DDOT":0},{"OBJECT_NAME":"ONEWEB-0406","OBJECT_ID":"2021-132T","EPOCH":"2026-02-01T03:38:43.446336","MEAN_MOTION":13.18683032,"ECCENTRICITY":0.00023009,"INCLINATION":87.9212,"RA_OF_ASC_NODE":2.4674,"ARG_OF_PERICENTER":80.0603,"MEAN_ANOMALY":280.0789,"EPHEMERIS_TYPE":0,"CLASSIFICATION_TYPE":"U","NORAD_CAT_ID":50486,"ELEMENT_SET_NO":999,"REV_AT_EPOCH":20369,"BSTAR":-0.00013475828,"MEAN_MOTION_DOT":-4.0e-7,"MEAN_MOTION_DDOT":0},{"OBJECT_NAME":"ONEWEB-0407","OBJECT_ID":"2021-132U","EPOCH":"2026-02-01T03:29:14.025408","MEAN_MOTION":13.18687434,"ECCENTRICITY":0.00016531,"INCLINATION":87.9212,"RA_OF_ASC_NODE":2.4516,"ARG_OF_PERICENTER":83.3166,"MEAN_ANOMALY":276.8154,"EPHEMERIS_TYPE":0,"CLASSIFICATION_TYPE":"U","NORAD_CAT_ID":50487,"ELEMENT_SET_NO":999,"REV_AT_EPOCH":20363,"BSTAR":0.00026200702,"MEAN_MOTION_DOT":1.16e-6,"MEAN_MOTION_DDOT":0},{"OBJECT_NAME":"ONEWEB-0409","OBJECT_ID":"2021-132V","EPOCH":"2026-01-31T23:41:57.844320","MEAN_MOTION":13.11415735,"ECCENTRICITY":0.00022089,"INCLINATION":87.8832,"RA_OF_ASC_NODE":48.1512,"ARG_OF_PERICENTER":94.7245,"MEAN_ANOMALY":265.4135,"EPHEMERIS_TYPE":0,"CLASSIFICATION_TYPE":"U","NORAD_CAT_ID":50488,"ELEMENT_SET_NO":999,"REV_AT_EPOCH":19773,"BSTAR":-0.0014635185,"MEAN_MOTION_DOT":-5.06e-6,"MEAN_MOTION_DDOT":0},{"OBJECT_NAME":"ONEWEB-0412","OBJECT_ID":"2021-132W","EPOCH":"2026-02-01T05:01:51.973248","MEAN_MOTION":13.18686493,"ECCENTRICITY":0.0001706,"INCLINATION":87.9212,"RA_OF_ASC_NODE":2.4528,"ARG_OF_PERICENTER":73.5502,"MEAN_ANOMALY":286.5818,"EPHEMERIS_TYPE":0,"CLASSIFICATION_TYPE":"U","NORAD_CAT_ID":50489,"ELEMENT_SET_NO":999,"REV_AT_EPOCH":20373,"BSTAR":0.00027167897,"MEAN_MOTION_DOT":1.2e-6,"MEAN_MOTION_DDOT":0},{"OBJECT_NAME":"ONEWEB-0413","OBJECT_ID":"2021-132X","EPOCH":"2026-02-01T03:19:42.631104","MEAN_MOTION":13.18689185,"ECCENTRICITY":0.0001535,"INCLINATION":87.9203,"RA_OF_ASC_NODE":2.4746,"ARG_OF_PERICENTER":76.5389,"MEAN_ANOMALY":283.5914,"EPHEMERIS_TYPE":0,"CLASSIFICATION_TYPE":"U","NORAD_CAT_ID":50490,"ELEMENT_SET_NO":999,"REV_AT_EPOCH":20366,"BSTAR":-7.3248799e-5,"MEAN_MOTION_DOT":-1.6e-7,"MEAN_MOTION_DDOT":0},{"OBJECT_NAME":"ONEWEB-0414","OBJECT_ID":"2021-132Y","EPOCH":"2026-01-31T21:30:34.449984","MEAN_MOTION":13.18686543,"ECCENTRICITY":0.00018648,"INCLINATION":87.921,"RA_OF_ASC_NODE":2.4912,"ARG_OF_PERICENTER":77.5492,"MEAN_ANOMALY":282.5849,"EPHEMERIS_TYPE":0,"CLASSIFICATION_TYPE":"U","NORAD_CAT_ID":50491,"ELEMENT_SET_NO":999,"REV_AT_EPOCH":20366,"BSTAR":-0.00010869906,"MEAN_MOTION_DOT":-3.0e-7,"MEAN_MOTION_DDOT":0},{"OBJECT_NAME":"ONEWEB-0417","OBJECT_ID":"2021-132Z","EPOCH":"2026-01-31T21:42:26.025696","MEAN_MOTION":13.18687316,"ECCENTRICITY":0.0002058,"INCLINATION":87.92,"RA_OF_ASC_NODE":2.5203,"ARG_OF_PERICENTER":84.4241,"MEAN_ANOMALY":275.7126,"EPHEMERIS_TYPE":0,"CLASSIFICATION_TYPE":"U","NORAD_CAT_ID":50492,"ELEMENT_SET_NO":999,"REV_AT_EPOCH":20364,"BSTAR":-0.00017569377,"MEAN_MOTION_DOT":-5.6e-7,"MEAN_MOTION_DDOT":0},{"OBJECT_NAME":"ONEWEB-0418","OBJECT_ID":"2021-132AA","EPOCH":"2026-02-01T03:24:17.453952","MEAN_MOTION":13.1868728,"ECCENTRICITY":0.00022917,"INCLINATION":87.9211,"RA_OF_ASC_NODE":2.46,"ARG_OF_PERICENTER":84.3091,"MEAN_ANOMALY":275.8302,"EPHEMERIS_TYPE":0,"CLASSIFICATION_TYPE":"U","NORAD_CAT_ID":50493,"ELEMENT_SET_NO":999,"REV_AT_EPOCH":20373,"BSTAR":-0.00013454445,"MEAN_MOTION_DOT":-4.0e-7,"MEAN_MOTION_DDOT":0},{"OBJECT_NAME":"ONEWEB-0419","OBJECT_ID":"2021-132AB","EPOCH":"2026-01-31T22:22:49.819584","MEAN_MOTION":13.1868688,"ECCENTRICITY":0.00020612,"INCLINATION":87.921,"RA_OF_ASC_NODE":2.5013,"ARG_OF_PERICENTER":91.5335,"MEAN_ANOMALY":268.6033,"EPHEMERIS_TYPE":0,"CLASSIFICATION_TYPE":"U","NORAD_CAT_ID":50494,"ELEMENT_SET_NO":999,"REV_AT_EPOCH":20362,"BSTAR":-7.436381e-5,"MEAN_MOTION_DOT":-1.6e-7,"MEAN_MOTION_DDOT":0}]
